[{"OBJECT_NAME":"COSMOS 2593","OBJECT_ID":"2025-182C","EPOCH":"2026-03-09T20:17:18.799872","MEAN_MOTION":15.96420699,"ECCENTRICITY":0.00074478,"INCLINATION":96.5866,"RA_OF_ASC_NODE":2.0071,"ARG_OF_PERICENTER":152.4407,"MEAN_ANOMALY":207.7267,"EPHEMERIS_TYPE":0,"CLASSIFICATION_TYPE":"U","NORAD_CAT_ID":65269,"ELEMENT_SET_NO":999,"REV_AT_EPOCH":3184,"BSTAR":5.9380813e-5,"MEAN_MOTION_DOT":0.00024168,"MEAN_MOTION_DDOT":2.076453e-6},{"OBJECT_NAME":"STARLINK-36335","OBJECT_ID":"2026-040A","EPOCH":"2026-03-09T22:00:01.999584","MEAN_MOTION":16.04916859,"ECCENTRICITY":0.00010058,"INCLINATION":97.2779,"RA_OF_ASC_NODE":17.1104,"ARG_OF_PERICENTER":104.629,"MEAN_ANOMALY":244.1763,"EPHEMERIS_TYPE":0,"CLASSIFICATION_TYPE":"U","NORAD_CAT_ID":68015,"ELEMENT_SET_NO":999,"REV_AT_EPOCH":241,"BSTAR":-0.0017098192,"MEAN_MOTION_DOT":-0.01149249,"MEAN_MOTION_DDOT":0.00044892206}]
